0 GLOBALSTAR M076
1 37190U 10054C   13282.10178389 -.00000103  00000-0  63181-5 0  9138
2 37190 052.0014 175.3656 0001550 110.4807 346.7207 12.62269944138005
0 GLOBALSTAR M076
1 37190U 10054C   13283.22259810 -.00000087  00000-0  91802-4 0  9143
2 37190 052.0013 171.9536 0001532 112.0269 040.8235 12.62269807138149
0 GLOBALSTAR M076
1 37190U 10054C   13284.25265499 -.00000067  00000-0  20389-3 0  9157
2 37190 052.0012 168.8178 0001526 113.5613 042.3206 12.62269711138270
0 GLOBALSTAR M076
1 37190U 10054C   13285.72762494 -.00000056  00000-0  26594-3 0  9160
2 37190 052.0009 164.3275 0001531 115.9438 265.7132 12.62269644138467
0 GLOBALSTAR M076
1 37190U 10054C   13286.75867233 -.00000058  00000-0  25365-3 0  9179
2 37190 052.0007 161.1888 0001530 117.6010 271.5894 12.62269680138598
0 GLOBALSTAR M076
1 37190U 10054C   13287.79111579 -.00000063  00000-0  22876-3 0  9180
2 37190 052.0005 158.0456 0001522 119.3487 283.7224 12.62269890138720
0 GLOBALSTAR M076
1 37190U 10054C   13289.08487073 -.00000074  00000-0  16541-3 0  9194
2 37190 052.0004 154.1070 0001510 121.3323 043.6412 12.62270135138880
0 GLOBALSTAR M076
1 37190U 10054C   13290.10807928 -.00000096  00000-0  44926-4 0  9209
2 37190 052.0003 150.9919 0001505 123.1617 013.7077 12.62270314139015
0 GLOBALSTAR M076
1 37190U 10054C   13291.14050755 -.00000106  00000-0 -14448-4 0  9212
2 37190 052.0003 147.8487 0001487 124.8969 025.7857 12.62270485139149
0 GLOBALSTAR M076
1 37190U 10054C   13292.17127231 -.00000107  00000-0 -20245-4 0  9224
2 37190 052.0003 144.7107 0001478 126.8769 030.0571 12.62270597139274
0 GLOBALSTAR M076
1 37190U 10054C   13293.73719891 -.00000101  00000-0  18002-4 0  9238
2 37190 052.0004 139.9433 0001452 129.5241 306.7130 12.62270566139472
0 GLOBALSTAR M076
1 37190U 10054C   13294.76226015 -.00000082  00000-0  12241-3 0  9240
2 37190 052.0005 136.8225 0001438 131.2413 285.3180 12.62270532139608
0 GLOBALSTAR M076
1 37190U 10054C   13295.88119041 -.00000076  00000-0  15653-3 0  9258
2 37190 052.0005 133.4160 0001414 133.0407 330.6049 12.62270382139742
